OBJECT_NAME,OBJECT_ID,EPOCH,MEAN_MOTION,ECCENTRICITY,INCLINATION,RA_OF_ASC_NODE,ARG_OF_PERICENTER,MEAN_ANOMALY,EPHEMERIS_TYPE,CLASSIFICATION_TYPE,NORAD_CAT_ID,ELEMENT_SET_NO,REV_AT_EPOCH,BSTAR,MEAN_MOTION_DOT,MEAN_MOTION_DDOT
SAUDISAT 1C (SO-50),2002-058C,2026-07-01T09:12:04.519296,14.83076563,.00749191,64.5520,85.0626,259.8268,99.4382,0,U,27607,999,26656,.1391167E-3,.1035E-4,0
SAUDISAT 2,2004-025F,2026-07-01T10:53:17.264256,14.56692065,.00234897,98.5510,182.8044,252.0930,107.7706,0,U,28371,999,16782,.75503697E-4,.288E-5,0
SAUDISAT 3,2007-012B,2026-07-01T03:08:47.831424,14.71433406,.00145942,98.1461,132.5412,177.8647,182.2625,0,U,31118,999,2979,.52345928E-4,.274E-5,0
PISAT,2016-059B,2026-07-01T10:45:24.112800,14.69008983,.00295768,97.8182,182.2883,157.1989,203.0538,0,U,41784,999,52183,.19558008E-3,.1107E-4,0
FLYING LAPTOP,2017-042G,2026-07-01T15:35:43.552032,15.01238707,.00200159,97.4751,337.6318,75.5812,284.7632,0,U,42831,999,48862,.35368308E-3,.4505E-4,0
SALSAT,2020-068K,2026-07-01T11:15:52.774848,15.30000103,.00079905,97.8847,186.4054,246.9386,113.1011,0,U,46495,999,31754,.29884673E-3,.8603E-4,0
