SAUDISAT 1C (SO-50)     
1 27607U 02058C   26182.38338564  .00001035  00000+0  13912-3 0  9993
2 27607  64.5520  85.0626 0074919 259.8268  99.4382 14.83076563266566
SAUDISAT 2              
1 28371U 04025F   26182.45367204  .00000288  00000+0  75504-4 0  9994
2 28371  98.5510 182.8044 0023489 252.0930 107.7706 14.56692065167821
SAUDISAT 3              
1 31118U 07012B   26182.13110916  .00000274  00000+0  52346-4 0  9991
2 31118  98.1461 132.5412 0014594 177.8647 182.2625 14.71433406 29792
PISAT                   
1 41784U 16059B   26182.44819575  .00001107  00000+0  19558-3 0  9996
2 41784  97.8182 182.2883 0029576 157.1989 203.0538 14.69008983521830
FLYING LAPTOP           
1 42831U 17042G   26182.64980963  .00004505  00000+0  35368-3 0  9997
2 42831  97.4751 337.6318 0020015  75.5812 284.7632 15.01238707488624
SALSAT                  
1 46495U 20068K   26182.46936082  .00008603  00000+0  29885-3 0  9992
2 46495  97.8847 186.4054 0007990 246.9386 113.1011 15.30000103317545
